[
    {
        "Altitude(m)": 569308.8043297076,
        "Argument of Periapsis(deg)": 0.0,
        "Eccentricity": 0.0,
        "Inclination(deg)": 53.0,
        "Latitude(deg)": -46.77330508282546,
        "Longitude(deg)": 152.15508217008428,
        "Mean Anomaly(deg)": -65.45449999999998,
        "RAAN(deg)": 305.0,
        "Satellite Name": "Starlink Shell 1 1360",
        "Satellite Number": 1360,
        "Semi-Major Axis(m)": 6931778.249405717,
        "Time(s)": 0
    },
    {
        "Altitude(m)": 569184.6954734112,
        "Argument of Periapsis(deg)": 0.00034857847951123687,
        "Eccentricity": 0.0,
        "Inclination(deg)": 53.0,
        "Latitude(deg)": -46.468917771403476,
        "Longitude(deg)": 152.90680355641547,
        "Mean Anomaly(deg)": -64.82766879644329,
        "RAAN(deg)": 304.99948122992254,
        "Satellite Name": "Starlink Shell 1 1360",
        "Satellite Number": 1360,
        "Semi-Major Axis(m)": 6931778.249405717,
        "Time(s)": 10
    },
    {
        "Altitude(m)": 569058.1615656002,
        "Argument of Periapsis(deg)": 0.0006971569590224737,
        "Eccentricity": 0.0,
        "Inclination(deg)": 53.0,
        "Latitude(deg)": -46.15907342384178,
        "Longitude(deg)": 153.64967517125413,
        "Mean Anomaly(deg)": -64.20083759288659,
        "RAAN(deg)": 304.9989624598451,
        "Satellite Name": "Starlink Shell 1 1360",
        "Satellite Number": 1360,
        "Semi-Major Axis(m)": 6931778.249405717,
        "Time(s)": 20
    },
    {
        "Altitude(m)": 568929.2525767923,
        "Argument of Periapsis(deg)": 0.0010457354385337105,
        "Eccentricity": 0.0,
        "Inclination(deg)": 53.0,
        "Latitude(deg)": -45.84388938481703,
        "Longitude(deg)": 154.38373857723346,
        "Mean Anomaly(deg)": -63.574006389329895,
        "RAAN(deg)": 304.9984436897676,
        "Satellite Name": "Starlink Shell 1 1360",
        "Satellite Number": 1360,
        "Semi-Major Axis(m)": 6931778.249405717,
        "Time(s)": 30
    },
    {
        "Altitude(m)": 568798.019385752,
        "Argument of Periapsis(deg)": 0.0013943139180449475,
        "Eccentricity": 0.0,
        "Inclination(deg)": 53.0,
        "Latitude(deg)": -45.52348172713117,
        "Longitude(deg)": 155.1090436856343,
        "Mean Anomaly(deg)": -62.94717518577305,
        "RAAN(deg)": 304.9979249196901,
        "Satellite Name": "Starlink Shell 1 1360",
        "Satellite Number": 1360,
        "Semi-Major Axis(m)": 6931778.249405717,
        "Time(s)": 40
    },
    {
        "Altitude(m)": 568664.5137571666,
        "Argument of Periapsis(deg)": 0.0017428923975561844,
        "Eccentricity": 0.0,
        "Inclination(deg)": 53.0,
        "Latitude(deg)": -45.19796516264308,
        "Longitude(deg)": 155.8256472290004,
        "Mean Anomaly(deg)": -62.3203439822164,
        "RAAN(deg)": 304.9974061496127,
        "Satellite Name": "Starlink Shell 1 1360",
        "Satellite Number": 1360,
        "Semi-Major Axis(m)": 6931778.249405717,
        "Time(s)": 50
    },
    {
        "Altitude(m)": 568528.7883189548,
        "Argument of Periapsis(deg)": 0.002091470877067421,
        "Eccentricity": 0.0,
        "Inclination(deg)": 53.0,
        "Latitude(deg)": -44.86745296234651,
        "Longitude(deg)": 156.5336127588333,
        "Mean Anomaly(deg)": -61.69351277865971,
        "RAAN(deg)": 304.99688737953517,
        "Satellite Name": "Starlink Shell 1 1360",
        "Satellite Number": 1360,
        "Semi-Major Axis(m)": 6931778.249405717,
        "Time(s)": 60
    },
    {
        "Altitude(m)": 568390.8965391263,
        "Argument of Periapsis(deg)": 0.0024400493565786582,
        "Eccentricity": 0.0,
        "Inclination(deg)": 53.0,
        "Latitude(deg)": -44.532056885210785,
        "Longitude(deg)": 157.2330106569588,
        "Mean Anomaly(deg)": -61.06668157510296,
        "RAAN(deg)": 304.9963686094577,
        "Satellite Name": "Starlink Shell 1 1360",
        "Satellite Number": 1360,
        "Semi-Major Axis(m)": 6931778.249405717,
        "Time(s)": 70
    },
    {
        "Altitude(m)": 568250.8927023201,
        "Argument of Periapsis(deg)": 0.002788627836089895,
        "Eccentricity": 0.0,
        "Inclination(deg)": 53.0,
        "Latitude(deg)": -44.19188711538148,
        "Longitude(deg)": 157.9239166489275,
        "Mean Anomaly(deg)": -60.439850371546214,
        "RAAN(deg)": 304.99584983938024,
        "Satellite Name": "Starlink Shell 1 1360",
        "Satellite Number": 1360,
        "Semi-Major Axis(m)": 6931778.249405717,
        "Time(s)": 80
    },
    {
        "Altitude(m)": 568108.8318859146,
        "Argument of Periapsis(deg)": 0.0031372063156011316,
        "Eccentricity": 0.0,
        "Inclination(deg)": 53.0,
        "Latitude(deg)": -43.84705220733791,
        "Longitude(deg)": 158.6064118462072,
        "Mean Anomaly(deg)": -59.813019167989566,
        "RAAN(deg)": 304.9953310693028,
        "Satellite Name": "Starlink Shell 1 1360",
        "Satellite Number": 1360,
        "Semi-Major Axis(m)": 6931778.249405717,
        "Time(s)": 90
    },
    {
        "Altitude(m)": 567964.7699358106,
        "Argument of Periapsis(deg)": 0.0034857847951123688,
        "Eccentricity": 0.0,
        "Inclination(deg)": 53.0,
        "Latitude(deg)": -43.4976590385907,
        "Longitude(deg)": 159.28058280510672,
        "Mean Anomaly(deg)": -59.186187964432875,
        "RAAN(deg)": 304.99481229922526,
        "Satellite Name": "Starlink Shell 1 1360",
        "Satellite Number": 1360,
        "Semi-Major Axis(m)": 6931778.249405717,
        "Time(s)": 100
    },
    {
        "Altitude(m)": 567818.7634418592,
        "Argument of Periapsis(deg)": 0.003834363274623606,
        "Eccentricity": 0.0,
        "Inclination(deg)": 53.0,
        "Latitude(deg)": -43.14381276950009,
        "Longitude(deg)": 159.94652009017972,
        "Mean Anomaly(deg)": -58.55935676087613,
        "RAAN(deg)": 304.9942935291478,
        "Satellite Name": "Starlink Shell 1 1360",
        "Satellite Number": 1360,
        "Semi-Major Axis(m)": 6931778.249405717,
        "Time(s)": 110
    },
    {
        "Altitude(m)": 567670.8697128965,
        "Argument of Periapsis(deg)": 0.004182941754134842,
        "Eccentricity": 0.0,
        "Inclination(deg)": 53.0,
        "Latitude(deg)": -42.7856168098038,
        "Longitude(deg)": 160.60431836830688,
        "Mean Anomaly(deg)": -57.93252555731938,
        "RAAN(deg)": 304.99377475907033,
        "Satellite Name": "Starlink Shell 1 1360",
        "Satellite Number": 1360,
        "Semi-Major Axis(m)": 6931778.249405717,
        "Time(s)": 120
    },
    {
        "Altitude(m)": 567521.1467515333,
        "Argument of Periapsis(deg)": 0.004531520233646079,
        "Eccentricity": 0.0,
        "Inclination(deg)": 53.0,
        "Latitude(deg)": -42.4231727914401,
        "Longitude(deg)": 161.25407652087773,
        "Mean Anomaly(deg)": -57.30569435376268,
        "RAAN(deg)": 304.9932559889928,
        "Satellite Name": "Starlink Shell 1 1360",
        "Satellite Number": 1360,
        "Semi-Major Axis(m)": 6931778.249405717,
        "Time(s)": 130
    },
    {
        "Altitude(m)": 567369.6532285212,
        "Argument of Periapsis(deg)": 0.0048800987131573164,
        "Eccentricity": 0.0,
        "Inclination(deg)": 53.0,
        "Latitude(deg)": -42.0565805472576,
        "Longitude(deg)": 161.8958962613566,
        "Mean Anomaly(deg)": -56.678863150205984,
        "RAAN(deg)": 304.9927372189154,
        "Satellite Name": "Starlink Shell 1 1360",
        "Satellite Number": 1360,
        "Semi-Major Axis(m)": 6931778.249405717,
        "Time(s)": 140
    },
    {
        "Altitude(m)": 567216.4484569045,
        "Argument of Periapsis(deg)": 0.005228677192668553,
        "Eccentricity": 0.0,
        "Inclination(deg)": 53.0,
        "Latitude(deg)": -41.685938095220216,
        "Longitude(deg)": 162.52988228400295,
        "Mean Anomaly(deg)": -56.05203194664919,
        "RAAN(deg)": 304.99221844883795,
        "Satellite Name": "Starlink Shell 1 1360",
        "Satellite Number": 1360,
        "Semi-Major Axis(m)": 6931778.249405717,
        "Time(s)": 150
    },
    {
        "Altitude(m)": 567061.592365789,
        "Argument of Periapsis(deg)": 0.00557725567217979,
        "Eccentricity": 0.0,
        "Inclination(deg)": 53.0,
        "Latitude(deg)": -41.311341627717155,
        "Longitude(deg)": 163.1561424307941,
        "Mean Anomaly(deg)": -55.4252007430925,
        "RAAN(deg)": 304.9916996787604,
        "Satellite Name": "Starlink Shell 1 1360",
        "Satellite Number": 1360,
        "Semi-Major Axis(m)": 6931778.249405717,
        "Time(s)": 160
    },
    {
        "Altitude(m)": 566905.1454738858,
        "Argument of Periapsis(deg)": 0.0059258341516910265,
        "Eccentricity": 0.0,
        "Inclination(deg)": 53.0,
        "Latitude(deg)": -40.932885505600225,
        "Longitude(deg)": 163.77478636349585,
        "Mean Anomaly(deg)": -54.7983695395358,
        "RAAN(deg)": 304.991180908683,
        "Satellite Name": "Starlink Shell 1 1360",
        "Satellite Number": 1360,
        "Semi-Major Axis(m)": 6931778.249405717,
        "Time(s)": 170
    },
    {
        "Altitude(m)": 566747.1688627271,
        "Argument of Periapsis(deg)": 0.006274412631202263,
        "Eccentricity": 0.0,
        "Inclination(deg)": 53.0,
        "Latitude(deg)": -40.55066225659203,
        "Longitude(deg)": 164.38592576635884,
        "Mean Anomaly(deg)": -54.1715383359791,
        "RAAN(deg)": 304.9906621386055,
        "Satellite Name": "Starlink Shell 1 1360",
        "Satellite Number": 1360,
        "Semi-Major Axis(m)": 6931778.249405717,
        "Time(s)": 180
    }
]